ARIANE 44LP DEB         
1 33546U 88109V   26085.70097230  .00000028  00000+0  13454-2 0  9994
2 33546   7.0999 277.4449 7126330 341.4414 308.7366  2.23372113 19598
ARIANE 2 DEB            
1 33548U 89006AQ  26074.80590768 -.00000188  00000+0  00000+0 0  9994
2 33548  10.0722  18.8136 6921719 187.4804 150.8642  2.22278637165918
ARIANE 2 DEB            
1 33558U 89006BA  26075.77868058 -.00000177  00000+0  00000+0 0  9990
2 33558  10.5335   5.2907 6936995 205.7838  90.2218  2.21806763 19205
ARIANE 2 DEB            
1 33579U 89006BX  26072.80850914  .00000756  00000+0  32806-1 0  9999
2 33579  10.6068 120.5937 7082564 296.8939  68.6112  2.24842289192967
EXPRESS-AM44            
1 33595U 09007A   26087.82782553 -.00000106  00000+0  00000+0 0  9990
2 33595   3.2573  79.3579 0004127 282.6094 111.2775  1.00271451 51485
BREEZE-M R/B            
1 33598U 09007D   26087.68276729 -.00000291  00000+0  00000+0 0  9995
2 33598  12.2927  37.0962 0202300  59.0805 314.7066  0.97632742 61491
NSS-9                   
1 33749U 09008A   26087.79491444  .00000053  00000+0  00000+0 0  9994
2 33749   1.0544  83.3689 0002150 271.6754 300.3935  1.00273345 62713
TELSTAR 11N             
1 34111U 09009A   26087.32335980  .00000000  00000+0  00000+0 0  9992
2 34111   0.0239 168.2708 0002471 186.8236 269.5075  1.00270397 45435
SL-23 R/B               
1 34112U 09009B   26086.50365968 -.00000040  00000+0  00000+0 0  9996
2 34112  35.0694 289.0365 6886683 140.5284 290.2263  2.20444684137551
RADUGA-1 8              
1 34264U 09010A   26087.48075251  .00000104  00000+0  00000+0 0  9997
2 34264  11.9585  42.4615 0010660  20.2522 332.9207  0.99821858 62361
SL-12 R/B(2)            
1 34265U 09010B   26087.31417309 -.00000199  00000+0  00000+0 0  9999
2 34265  11.9513  42.4027 0003834 300.6305 231.5842  0.99996869 62385
WGS F2 (USA 204)        
1 34713U 09017A   26087.62747373  .00000000  00000+0  00000+0 0  9995
2 34713   0.0199 171.5916 0000109 128.3085 169.5463  1.00270281 44818
ATLAS 5 CENTAUR R/B     
1 34714U 09017B   26087.13996265 -.00000232  00000+0  46198-2 0  9997
2 34714  20.5775 338.2879 8186031  15.1132 359.1638  1.18218124 71660
SES-7 (PROTOSTAR 2)     
1 34941U 09027A   26087.85142471 -.00000364  00000+0  00000+0 0  9996
2 34941   0.0742  77.7790 0001787 248.2102 275.0190  1.00272091 61828
MEASAT-3A               
1 35362U 09032A   26087.77753205  .00000000  00000+0  00000+0 0  9990
2 35362   0.0086  98.9558 0003179 269.5433 257.6042  1.00269409  7229
SL-23 R/B               
1 35363U 09032B   26087.83718556 -.00000051  00000+0  00000+0 0  9995
2 35363   8.0247 184.8943 4125661  89.5134 293.5770  1.68695239103269
GOES 14                 
1 35491U 09033A   26087.79569447  .00000053  00000+0  00000+0 0  9997
2 35491   1.4830  84.0229 0001717 277.8076 297.9517  1.00108649  5787
