[{"OBJECT_NAME":"ARIANE 44LP DEB","OBJECT_ID":"1988-109V","EPOCH":"2026-03-26T16:49:24.006720","MEAN_MOTION":2.23372113,"ECCENTRICITY":0.71263302,"INCLINATION":7.0999,"RA_OF_ASC_NODE":277.4449,"ARG_OF_PERICENTER":341.4414,"MEAN_ANOMALY":308.7366,"EPHEMERIS_TYPE":0,"CLASSIFICATION_TYPE":"U","NORAD_CAT_ID":33546,"ELEMENT_SET_NO":999,"REV_AT_EPOCH":1959,"BSTAR":0.0013454022,"MEAN_MOTION_DOT":2.8e-7,"MEAN_MOTION_DDOT":0},{"OBJECT_NAME":"ARIANE 2 DEB","OBJECT_ID":"1989-006AQ","EPOCH":"2026-03-15T19:20:30.423552","MEAN_MOTION":2.22278637,"ECCENTRICITY":0.69217193,"INCLINATION":10.0722,"RA_OF_ASC_NODE":18.8136,"ARG_OF_PERICENTER":187.4804,"MEAN_ANOMALY":150.8642,"EPHEMERIS_TYPE":0,"CLASSIFICATION_TYPE":"U","NORAD_CAT_ID":33548,"ELEMENT_SET_NO":999,"REV_AT_EPOCH":16591,"BSTAR":0,"MEAN_MOTION_DOT":-1.88e-6,"MEAN_MOTION_DDOT":0},{"OBJECT_NAME":"ARIANE 2 DEB","OBJECT_ID":"1989-006BA","EPOCH":"2026-03-16T18:41:18.002112","MEAN_MOTION":2.21806763,"ECCENTRICITY":0.69369955,"INCLINATION":10.5335,"RA_OF_ASC_NODE":5.2907,"ARG_OF_PERICENTER":205.7838,"MEAN_ANOMALY":90.2218,"EPHEMERIS_TYPE":0,"CLASSIFICATION_TYPE":"U","NORAD_CAT_ID":33558,"ELEMENT_SET_NO":999,"REV_AT_EPOCH":1920,"BSTAR":0,"MEAN_MOTION_DOT":-1.77e-6,"MEAN_MOTION_DDOT":0},{"OBJECT_NAME":"ARIANE 2 DEB","OBJECT_ID":"1989-006BX","EPOCH":"2026-03-13T19:24:15.189696","MEAN_MOTION":2.24842289,"ECCENTRICITY":0.70825645,"INCLINATION":10.6068,"RA_OF_ASC_NODE":120.5937,"ARG_OF_PERICENTER":296.8939,"MEAN_ANOMALY":68.6112,"EPHEMERIS_TYPE":0,"CLASSIFICATION_TYPE":"U","NORAD_CAT_ID":33579,"ELEMENT_SET_NO":999,"REV_AT_EPOCH":19296,"BSTAR":0.032805524,"MEAN_MOTION_DOT":7.56e-6,"MEAN_MOTION_DDOT":0},{"OBJECT_NAME":"EXPRESS-AM44","OBJECT_ID":"2009-007A","EPOCH":"2026-03-28T19:52:04.125792","MEAN_MOTION":1.00271451,"ECCENTRICITY":0.0004127,"INCLINATION":3.2573,"RA_OF_ASC_NODE":79.3579,"ARG_OF_PERICENTER":282.6094,"MEAN_ANOMALY":111.2775,"EPHEMERIS_TYPE":0,"CLASSIFICATION_TYPE":"U","NORAD_CAT_ID":33595,"ELEMENT_SET_NO":999,"REV_AT_EPOCH":5148,"BSTAR":0,"MEAN_MOTION_DOT":-1.06e-6,"MEAN_MOTION_DDOT":0},{"OBJECT_NAME":"BREEZE-M R/B","OBJECT_ID":"2009-007D","EPOCH":"2026-03-28T16:23:11.093856","MEAN_MOTION":0.97632742,"ECCENTRICITY":0.02023,"INCLINATION":12.2927,"RA_OF_ASC_NODE":37.0962,"ARG_OF_PERICENTER":59.0805,"MEAN_ANOMALY":314.7066,"EPHEMERIS_TYPE":0,"CLASSIFICATION_TYPE":"U","NORAD_CAT_ID":33598,"ELEMENT_SET_NO":999,"REV_AT_EPOCH":6149,"BSTAR":0,"MEAN_MOTION_DOT":-2.91e-6,"MEAN_MOTION_DDOT":0},{"OBJECT_NAME":"NSS-9","OBJECT_ID":"2009-008A","EPOCH":"2026-03-28T19:04:40.607616","MEAN_MOTION":1.00273345,"ECCENTRICITY":0.000215,"INCLINATION":1.0544,"RA_OF_ASC_NODE":83.3689,"ARG_OF_PERICENTER":271.6754,"MEAN_ANOMALY":300.3935,"EPHEMERIS_TYPE":0,"CLASSIFICATION_TYPE":"U","NORAD_CAT_ID":33749,"ELEMENT_SET_NO":999,"REV_AT_EPOCH":6271,"BSTAR":0,"MEAN_MOTION_DOT":5.3e-7,"MEAN_MOTION_DDOT":0},{"OBJECT_NAME":"TELSTAR 11N","OBJECT_ID":"2009-009A","EPOCH":"2026-03-28T07:45:38.286720","MEAN_MOTION":1.00270397,"ECCENTRICITY":0.00024716,"INCLINATION":0.0239,"RA_OF_ASC_NODE":168.2708,"ARG_OF_PERICENTER":186.8236,"MEAN_ANOMALY":269.5075,"EPHEMERIS_TYPE":0,"CLASSIFICATION_TYPE":"U","NORAD_CAT_ID":34111,"ELEMENT_SET_NO":999,"REV_AT_EPOCH":4543,"BSTAR":0,"MEAN_MOTION_DOT":0,"MEAN_MOTION_DDOT":0},{"OBJECT_NAME":"SL-23 R/B","OBJECT_ID":"2009-009B","EPOCH":"2026-03-27T12:05:16.196352","MEAN_MOTION":2.20444684,"ECCENTRICITY":0.6886683,"INCLINATION":35.0694,"RA_OF_ASC_NODE":289.0365,"ARG_OF_PERICENTER":140.5284,"MEAN_ANOMALY":290.2263,"EPHEMERIS_TYPE":0,"CLASSIFICATION_TYPE":"U","NORAD_CAT_ID":34112,"ELEMENT_SET_NO":999,"REV_AT_EPOCH":13755,"BSTAR":0,"MEAN_MOTION_DOT":-4.0e-7,"MEAN_MOTION_DDOT":0},{"OBJECT_NAME":"RADUGA-1 8","OBJECT_ID":"2009-010A","EPOCH":"2026-03-28T11:32:17.016864","MEAN_MOTION":0.99821858,"ECCENTRICITY":0.001066,"INCLINATION":11.9585,"RA_OF_ASC_NODE":42.4615,"ARG_OF_PERICENTER":20.2522,"MEAN_ANOMALY":332.9207,"EPHEMERIS_TYPE":0,"CLASSIFICATION_TYPE":"U","NORAD_CAT_ID":34264,"ELEMENT_SET_NO":999,"REV_AT_EPOCH":6236,"BSTAR":0,"MEAN_MOTION_DOT":1.04e-6,"MEAN_MOTION_DDOT":0},{"OBJECT_NAME":"SL-12 R/B(2)","OBJECT_ID":"2009-010B","EPOCH":"2026-03-28T07:32:24.554976","MEAN_MOTION":0.99996869,"ECCENTRICITY":0.00038346,"INCLINATION":11.9513,"RA_OF_ASC_NODE":42.4027,"ARG_OF_PERICENTER":300.6305,"MEAN_ANOMALY":231.5842,"EPHEMERIS_TYPE":0,"CLASSIFICATION_TYPE":"U","NORAD_CAT_ID":34265,"ELEMENT_SET_NO":999,"REV_AT_EPOCH":6238,"BSTAR":0,"MEAN_MOTION_DOT":-1.99e-6,"MEAN_MOTION_DDOT":0},{"OBJECT_NAME":"WGS F2 (USA 204)","OBJECT_ID":"2009-017A","EPOCH":"2026-03-28T15:03:33.730272","MEAN_MOTION":1.00270281,"ECCENTRICITY":1.09e-5,"INCLINATION":0.0199,"RA_OF_ASC_NODE":171.5916,"ARG_OF_PERICENTER":128.3085,"MEAN_ANOMALY":169.5463,"EPHEMERIS_TYPE":0,"CLASSIFICATION_TYPE":"U","NORAD_CAT_ID":34713,"ELEMENT_SET_NO":999,"REV_AT_EPOCH":4481,"BSTAR":0,"MEAN_MOTION_DOT":0,"MEAN_MOTION_DDOT":0},{"OBJECT_NAME":"ATLAS 5 CENTAUR R/B","OBJECT_ID":"2009-017B","EPOCH":"2026-03-28T03:21:32.772960","MEAN_MOTION":1.18218124,"ECCENTRICITY":0.81860318,"INCLINATION":20.5775,"RA_OF_ASC_NODE":338.2879,"ARG_OF_PERICENTER":15.1132,"MEAN_ANOMALY":359.1638,"EPHEMERIS_TYPE":0,"CLASSIFICATION_TYPE":"U","NORAD_CAT_ID":34714,"ELEMENT_SET_NO":999,"REV_AT_EPOCH":7166,"BSTAR":0.0046198338,"MEAN_MOTION_DOT":-2.32e-6,"MEAN_MOTION_DDOT":0},{"OBJECT_NAME":"SES-7 (PROTOSTAR 2)","OBJECT_ID":"2009-027A","EPOCH":"2026-03-28T20:26:03.094944","MEAN_MOTION":1.00272091,"ECCENTRICITY":0.0001787,"INCLINATION":0.0742,"RA_OF_ASC_NODE":77.779,"ARG_OF_PERICENTER":248.2102,"MEAN_ANOMALY":275.019,"EPHEMERIS_TYPE":0,"CLASSIFICATION_TYPE":"U","NORAD_CAT_ID":34941,"ELEMENT_SET_NO":999,"REV_AT_EPOCH":6182,"BSTAR":0,"MEAN_MOTION_DOT":-3.64e-6,"MEAN_MOTION_DDOT":0},{"OBJECT_NAME":"MEASAT-3A","OBJECT_ID":"2009-032A","EPOCH":"2026-03-28T18:39:38.769120","MEAN_MOTION":1.00269409,"ECCENTRICITY":0.0003179,"INCLINATION":0.0086,"RA_OF_ASC_NODE":98.9558,"ARG_OF_PERICENTER":269.5433,"MEAN_ANOMALY":257.6042,"EPHEMERIS_TYPE":0,"CLASSIFICATION_TYPE":"U","NORAD_CAT_ID":35362,"ELEMENT_SET_NO":999,"REV_AT_EPOCH":722,"BSTAR":0,"MEAN_MOTION_DOT":0,"MEAN_MOTION_DDOT":0},{"OBJECT_NAME":"SL-23 R/B","OBJECT_ID":"2009-032B","EPOCH":"2026-03-28T20:05:32.832384","MEAN_MOTION":1.68695239,"ECCENTRICITY":0.4125661,"INCLINATION":8.0247,"RA_OF_ASC_NODE":184.8943,"ARG_OF_PERICENTER":89.5134,"MEAN_ANOMALY":293.577,"EPHEMERIS_TYPE":0,"CLASSIFICATION_TYPE":"U","NORAD_CAT_ID":35363,"ELEMENT_SET_NO":999,"REV_AT_EPOCH":10326,"BSTAR":0,"MEAN_MOTION_DOT":-5.1e-7,"MEAN_MOTION_DDOT":0},{"OBJECT_NAME":"GOES 14","OBJECT_ID":"2009-033A","EPOCH":"2026-03-28T19:05:48.002208","MEAN_MOTION":1.00108649,"ECCENTRICITY":0.0001717,"INCLINATION":1.483,"RA_OF_ASC_NODE":84.0229,"ARG_OF_PERICENTER":277.8076,"MEAN_ANOMALY":297.9517,"EPHEMERIS_TYPE":0,"CLASSIFICATION_TYPE":"U","NORAD_CAT_ID":35491,"ELEMENT_SET_NO":999,"REV_AT_EPOCH":578,"BSTAR":0,"MEAN_MOTION_DOT":5.3e-7,"MEAN_MOTION_DDOT":0}]
